QB50P1                  
1 40025U 14033R   26133.47676531  .00005113  00000+0  25722-3 0  9996
2 40025  98.0980 142.2038 0008319 357.1376   2.9807 15.17704544647764
DTUSAT-2                
1 40030U 14033W   26132.96296650  .00004204  00000+0  23198-3 0  9990
2 40030  98.0866 128.4690 0007917   9.2046 350.9327 15.14545048647352
QB50P2                  
1 40032U 14033Y   26133.42297403  .00003611  00000+0  19903-3 0  9991
2 40032  98.0752 128.1540 0005806 300.8251  59.2407 15.14697843647407
PERSEUS-M1              
1 40039U 14033AF  26133.37918625  .00001314  00000+0  12397-3 0  9996
2 40039  97.9628  76.9475 0012845  57.4952 302.7508 14.95509627645434
POLYITAN-1              
1 40042U 14033AJ  26133.05669353  .00010021  00000+0  32682-3 0  9990
2 40042  98.0975 156.0281 0005376 265.7618  94.3007 15.32019115648211
TIGRISAT                
1 40043U 14033AK  26133.41623080  .00001379  00000+0  16459-3 0  9998
2 40043  97.7790 284.2372 0049316 187.0983 172.9540 14.85008518640467
CANX-4                  
1 40055U 14034C   26133.15986139  .00000543  00000+0  77075-4 0  9994
2 40055  98.3170   7.1807 0013890 120.6264 239.6319 14.81197448639344
CANX-5                  
1 40056U 14034D   26133.22625172  .00000543  00000+0  77001-4 0  9999
2 40056  98.3171   7.2908 0013907 120.6263 239.6321 14.81214543630167
GONETS-M 10             
1 40063U 14036C   26133.53874944  .00000148  00000+0  99707-3 0  9993
2 40063  82.5113 329.2030 0021198 216.0885 143.8765 12.42944987537947
METEOR-M 2              
1 40069U 14037A   26133.51356446 -.00000158  00000+0 -52886-4 0  9991
2 40069  98.5095 110.4840 0006555 128.4817 231.6950 14.21450999614390
DX1                     
1 40071U 14037C   26133.50640042  .00001365  00000+0  14850-3 0  9998
2 40071  98.3840  93.1119 0008037  34.8368 325.3373 14.89873534640941
UKUBE-1                 
1 40074U 14037F   26133.45317358  .00004504  00000+0  25970-3 0  9999
2 40074  98.4244 133.0939 0000418  66.1202 294.0070 15.12978180643306
GAOFEN-2                
1 40118U 14049A   26133.51370340  .00000003  00000+0  72836-5 0  9993
2 40118  98.0127 197.7512 0007222 357.4579   2.6595 14.80860097634102
BRITE-PL2 (HEWELIUSZ)   
1 40119U 14049B   26133.29015190  .00000711  00000+0  71365-4 0  9999
2 40119  97.9058 245.0324 0013130 221.1649 138.8581 14.94457930636238
CBERS 4                 
1 40336U 14079A   26133.53462338  .00000298  00000+0  11827-3 0  9996
2 40336  98.3557 191.4492 0001999 103.0964 257.0445 14.35500049598983
SMAP                    
1 40376U 15003A   26133.48147536  .00000256  00000+0  58503-4 0  9999
2 40376  98.1286 141.0669 0001380  69.9189 290.2162 14.63407282602543
GONETS-M 11             
1 40552U 15020A   26133.47487458 -.00000025  00000+0 -25359-3 0  9991
2 40552  82.4877  52.6173 0017401  77.2826 283.0198 12.42875625504421
GONETS-M 12             
1 40553U 15020B   26133.52925933  .00000057  00000+0  34253-3 0  9999
2 40553  82.4909  53.6981 0016405  62.9359 297.3393 12.42890297504428
GONETS-M 13             
1 40554U 15020C   26133.50215552  .00000096  00000+0  61983-3 0  9990
2 40554  82.4872  52.3402 0014937  49.0814 311.1557 12.42869236504394
DMC3-FM1                
1 40715U 15032A   26133.52059638  .00000662  00000+0  82253-4 0  9998
2 40715  97.6514   0.0474 0005931 152.4871 207.6659 14.85698469584767
DMC3-FM2                
1 40716U 15032B   26133.47541685  .00000475  00000+0  60710-4 0  9997
2 40716  97.6569   1.5540 0006242 158.4549 201.6931 14.85703935584753
DMC3-FM3                
1 40717U 15032C   26133.49851117 -.00000368  00000+0 -36469-4 0  9991
2 40717  97.6621   3.3071 0005482 156.6087 203.5379 14.85699265584762
CARBONITE 1 (CBNT-1)    
1 40718U 15032D   26133.51413956  .00000877  00000+0  11262-3 0  9996
2 40718  97.6502 313.0382 0015654  52.0878 308.1749 14.83476381584208
LILACSAT-2              
1 40908U 15049K   26133.55844944  .00010504  00000+0  18722-3 0  9990
2 40908  97.4695 169.1080 0007563  35.4274 324.7479 15.50267431590389
COSMOS 2507 (RODNIK-S *)
1 40920U 15050A   26133.53911831  .00000050  00000+0  29214-3 0  9997
2 40920  82.4888 101.2412 0011168  66.6967 293.5287 12.42926084482551
COSMOS 2508 (RODNIK-S *)
1 40921U 15050B   26133.49378226  .00000059  00000+0  35387-3 0  9995
2 40921  82.4841  99.7875 0015449  97.2492 263.0344 12.42913253482532
COSMOS 2509 (RODNIK-S *)
1 40922U 15050C   26133.51325902 -.00000035  00000+0 -32193-3 0  9990
2 40922  82.4849  99.8741 0015588 113.3590 246.9131 12.42882608482574
