OBJECT_NAME,OBJECT_ID,EPOCH,MEAN_MOTION,ECCENTRICITY,INCLINATION,RA_OF_ASC_NODE,ARG_OF_PERICENTER,MEAN_ANOMALY,EPHEMERIS_TYPE,CLASSIFICATION_TYPE,NORAD_CAT_ID,ELEMENT_SET_NO,REV_AT_EPOCH,BSTAR,MEAN_MOTION_DOT,MEAN_MOTION_DDOT
QB50P1,2014-033R,2026-05-13T11:26:32.522784,15.17704544,.0008319,98.0980,142.2038,357.1376,2.9807,0,U,40025,999,64776,.25722E-3,.5113E-4,0
DTUSAT-2,2014-033W,2026-05-12T23:06:40.305600,15.14545048,.00079176,98.0866,128.4690,9.2046,350.9327,0,U,40030,999,64735,.23198378E-3,.4204E-4,0
QB50P2,2014-033Y,2026-05-13T10:09:04.956192,15.14697843,.0005806,98.0752,128.1540,300.8251,59.2407,0,U,40032,999,64740,.19903E-3,.3611E-4,0
PERSEUS-M1,2014-033AF,2026-05-13T09:06:01.692000,14.95509627,.0012845,97.9628,76.9475,57.4952,302.7508,0,U,40039,999,64543,.12397E-3,.1314E-4,0
POLYITAN-1,2014-033AJ,2026-05-13T01:21:38.320992,15.32019115,.0005376,98.0975,156.0281,265.7618,94.3007,0,U,40042,999,64821,.32682E-3,.10021E-3,0
TIGRISAT,2014-033AK,2026-05-13T09:59:22.341120,14.85008518,.0049316,97.7790,284.2372,187.0983,172.9540,0,U,40043,999,64046,.16459E-3,.1379E-4,0
CANX-4,2014-034C,2026-05-13T03:50:12.024096,14.81197448,.001389,98.3170,7.1807,120.6264,239.6319,0,U,40055,999,63934,.77075E-4,.543E-5,0
CANX-5,2014-034D,2026-05-13T05:25:48.148608,14.81214543,.0013907,98.3171,7.2908,120.6263,239.6321,0,U,40056,999,63016,.77001E-4,.543E-5,0
GONETS-M 10,2014-036C,2026-05-13T12:55:47.951616,12.42944987,.0021198,82.5113,329.2030,216.0885,143.8765,0,U,40063,999,53794,.99707E-3,.148E-5,0
METEOR-M 2,2014-037A,2026-05-13T12:19:31.969344,14.21450999,.0006555,98.5095,110.4840,128.4817,231.6950,0,U,40069,999,61439,-.52886E-4,-.158E-5,0
DX1,2014-037C,2026-05-13T12:09:12.996288,14.89873534,.0008037,98.3840,93.1119,34.8368,325.3373,0,U,40071,999,64094,.1485E-3,.1365E-4,0
UKUBE-1,2014-037F,2026-05-13T10:52:34.197312,15.12978180,.0000418,98.4244,133.0939,66.1202,294.0070,0,U,40074,999,64330,.2597E-3,.4504E-4,0
GAOFEN-2,2014-049A,2026-05-13T12:19:43.973760,14.80860097,.0007222,98.0127,197.7512,357.4579,2.6595,0,U,40118,999,63410,.72836E-5,.3E-7,0
BRITE-PL2 (HEWELIUSZ),2014-049B,2026-05-13T06:57:49.124160,14.94457930,.001313,97.9058,245.0324,221.1649,138.8581,0,U,40119,999,63623,.71365E-4,.711E-5,0
CBERS 4,2014-079A,2026-05-13T12:49:51.460032,14.35500049,.0001999,98.3557,191.4492,103.0964,257.0445,0,U,40336,999,59898,.11827E-3,.298E-5,0
SMAP,2015-003A,2026-05-13T11:33:19.471104,14.63407282,.000138,98.1286,141.0669,69.9189,290.2162,0,U,40376,999,60254,.58503E-4,.256E-5,0
GONETS-M 11,2015-020A,2026-05-13T11:23:49.163712,12.42875625,.0017401,82.4877,52.6173,77.2826,283.0198,0,U,40552,999,50442,-.25359E-3,-.25E-6,0
GONETS-M 12,2015-020B,2026-05-13T12:42:08.006112,12.42890297,.0016405,82.4909,53.6981,62.9359,297.3393,0,U,40553,999,50442,.34253E-3,.57E-6,0
GONETS-M 13,2015-020C,2026-05-13T12:03:06.236928,12.42869236,.0014937,82.4872,52.3402,49.0814,311.1557,0,U,40554,999,50439,.61983E-3,.96E-6,0
DMC3-FM1,2015-032A,2026-05-13T12:29:39.527232,14.85698469,.0005931,97.6514,0.0474,152.4871,207.6659,0,U,40715,999,58476,.82253E-4,.662E-5,0
DMC3-FM2,2015-032B,2026-05-13T11:24:36.015840,14.85703935,.0006242,97.6569,1.5540,158.4549,201.6931,0,U,40716,999,58475,.6071E-4,.475E-5,0
DMC3-FM3,2015-032C,2026-05-13T11:57:51.365088,14.85699265,.0005482,97.6621,3.3071,156.6087,203.5379,0,U,40717,999,58476,-.36469E-4,-.368E-5,0
CARBONITE 1 (CBNT-1),2015-032D,2026-05-13T12:20:21.657984,14.83476381,.0015654,97.6502,313.0382,52.0878,308.1749,0,U,40718,999,58420,.11262E-3,.877E-5,0
LILACSAT-2,2015-049K,2026-05-13T13:24:10.031616,15.50267431,.0007563,97.4695,169.1080,35.4274,324.7479,0,U,40908,999,59038,.18722E-3,.10504E-3,0
COSMOS 2507 (RODNIK-S 13),2015-050A,2026-05-13T12:56:19.821984,12.42926084,.0011168,82.4888,101.2412,66.6967,293.5287,0,U,40920,999,48255,.29214E-3,.5E-6,0
COSMOS 2508 (RODNIK-S 14),2015-050B,2026-05-13T11:51:02.787264,12.42913253,.0015449,82.4841,99.7875,97.2492,263.0344,0,U,40921,999,48253,.35387E-3,.59E-6,0
COSMOS 2509 (RODNIK-S 15),2015-050C,2026-05-13T12:19:05.579328,12.42882608,.0015588,82.4849,99.8741,113.3590,246.9131,0,U,40922,999,48257,-.32193E-3,-.35E-6,0
